CTC1_L_00373016-03
1 57539U 23963IA  26037.47805556  .00000000  00000+0  00000-0 0  9999
2 57539  60.0000 180.0000 0000000   0.0000   0.0000 13.16009617    11
CTC1_L_00373016-04
1 57540U 24244QO  26037.47805556  .00000000  00000+0  00000-0 0  9994
2 57540  60.0000 180.0000 0000000   0.0000  90.0000 13.16009617    12
CTC1_L_00373017-01
1 57541U 22026FC  26037.47805556  .00000000  00000+0  00000-0 0  9991
2 57541  60.0000 192.0000 0000000   0.0000 192.0000 13.16009617    19
CTC1_L_00373017-02
1 57542U 24632ZA  26037.47805556  .00000000  00000+0  00000-0 0  9997
2 57542  60.0000 192.0000 0000000   0.0000 282.0000 13.16009617    10
CTC1_L_00373017-03
1 57543U 23211NO  26037.47805556  .00000000  00000+0  00000-0 0  9990
2 57543  60.0000 192.0000 0000000   0.0000  12.0000 13.16009617    12
CTC1_L_00373017-04
1 57544U 24594SN  26037.47805556  .00000000  00000+0  00000-0 0  9996
2 57544  60.0000 192.0000 0000000   0.0000 102.0000 13.16009617    13
CTC1_L_00373018-01
1 57545U 22117FU  26037.47805556  .00000000  00000+0  00000-0 0  9996
2 57545  60.0000 204.0000 0000000   0.0000 204.0000 13.16009617    11
CTC1_L_00373018-02
1 57546U 24242EX  26037.47805556  .00000000  00000+0  00000-0 0  9998
2 57546  60.0000 204.0000 0000000   0.0000 294.0000 13.16009617    11
CTC1_L_00373018-03
1 57547U 26436CB  26037.47805556  .00000000  00000+0  00000-0 0  9996
2 57547  60.0000 204.0000 0000000   0.0000  24.0000 13.16009617    13
CTC1_L_00373018-04
1 57548U 22627RL  26037.47805556  .00000000  00000+0  00000-0 0  9995
2 57548  60.0000 204.0000 0000000   0.0000 114.0000 13.16009617    14
CTC1_L_00373019-01
1 57549U 23702FD  26037.47805556  .00000000  00000+0  00000-0 0  9991
2 57549  60.0000 216.0000 0000000   0.0000 216.0000 13.16009617    11
CTC1_L_00373019-02
1 57550U 22467HT  26037.47805556  .00000000  00000+0  00000-0 0  9990
2 57550  60.0000 216.0000 0000000   0.0000 306.0000 13.16009617    13
CTC1_L_00373019-03
1 57551U 23228FQ  26037.47805556  .00000000  00000+0  00000-0 0  9997
2 57551  60.0000 216.0000 0000000   0.0000  36.0000 13.16009617    14
CTC1_L_00373019-04
1 57552U 22631KG  26037.47805556  .00000000  00000+0  00000-0 0  9995
2 57552  60.0000 216.0000 0000000   0.0000 126.0000 13.16009617    15
CTC1_L_00373020-01
1 57553U 26547LL  26037.47805556  .00000000  00000+0  00000-0 0  9996
2 57553  60.0000 228.0000 0000000   0.0000 228.0000 13.16009617    12
CTC1_L_00373020-02
1 57554U 24190CF  26037.47805556  .00000000  00000+0  00000-0 0  9999
2 57554  60.0000 228.0000 0000000   0.0000 318.0000 13.16009617    13
CTC1_L_00373020-03
1 57555U 26013FN  26037.47805556  .00000000  00000+0  00000-0 0  9996
2 57555  60.0000 228.0000 0000000   0.0000  48.0000 13.16009617    14
CTC1_L_00373020-04
1 57556U 22116QU  26037.47805556  .00000000  00000+0  00000-0 0  9997
2 57556  60.0000 228.0000 0000000   0.0000 138.0000 13.16009617    15
CTC1_L_00373021-01
1 57557U 26971LD  26037.47805556  .00000000  00000+0  00000-0 0  9991
2 57557  60.0000 240.0000 0000000   0.0000 240.0000 13.16009617    14
CTC1_L_00373021-02
1 57558U 24161HW  26037.47805556  .00000000  00000+0  00000-0 0  9991
2 57558  60.0000 240.0000 0000000   0.0000 330.0000 13.16009617    15
CTC1_L_00373021-03
1 57559U 22068KE  26037.47805556  .00000000  00000+0  00000-0 0  9996
2 57559  60.0000 240.0000 0000000   0.0000  60.0000 13.16009617    16
CTC1_L_00373021-04
1 57560U 22366NL  26037.47805556  .00000000  00000+0  00000-0 0  9999
2 57560  60.0000 240.0000 0000000   0.0000 150.0000 13.16009617    18
CTC1_L_00373022-01
1 57561U 26616LA  26037.47805556  .00000000  00000+0  00000-0 0  9992
2 57561  60.0000 252.0000 0000000   0.0000 252.0000 13.16009617    15
CTC1_L_00373022-02
1 57562U 22422C   26037.47805556  .00000000  00000+0  00000-0 0  9994
2 57562  60.0000 252.0000 0000000   0.0000 342.0000 13.16009617    16
CTC1_L_00373022-03
1 57563U 24986DU  26037.47805556  .00000000  00000+0  00000-0 0  9992
2 57563  60.0000 252.0000 0000000   0.0000  72.0000 13.16009617    17
CTC1_L_00373022-04
1 57564U 24718IO  26037.47805556  .00000000  00000+0  00000-0 0  9996
2 57564  60.0000 252.0000 0000000   0.0000 162.0000 13.16009617    18
CTC1_L_00373023-01
1 57565U 25939UI  26037.47805556  .00000000  00000+0  00000-0 0  9993
2 57565  60.0000 264.0000 0000000   0.0000 264.0000 13.16009617    15
CTC1_L_00373023-02
1 57566U 26054IO  26037.47805556  .00000000  00000+0  00000-0 0  9993
2 57566  60.0000 264.0000 0000000   0.0000 354.0000 13.16009617    16
CTC1_L_00373023-03
1 57567U 22529LJ  26037.47805556  .00000000  00000+0  00000-0 0  9997
2 57567  60.0000 264.0000 0000000   0.0000  84.0000 13.16009617    17
CTC1_L_00373023-04
1 57568U 25707FY  26037.47805556  .00000000  00000+0  00000-0 0  9999
2 57568  60.0000 264.0000 0000000   0.0000 174.0000 13.16009617    18
CTC1_L_00373024-01
1 57569U 22628DJ  26037.47805556  .00000000  00000+0  00000-0 0  9999
2 57569  60.0000 276.0000 0000000   0.0000 276.0000 13.16009617    15
CTC1_L_00373024-02
1 57570U 26678ID  26037.47805556  .00000000  00000+0  00000-0 0  9990
2 57570  60.0000 276.0000 0000000   0.0000   6.0000 13.16009617    18
CTC1_L_00373024-03
1 57571U 25441SU  26037.47805556  .00000000  00000+0  00000-0 0  9998
2 57571  60.0000 276.0000 0000000   0.0000  96.0000 13.16009617    18
CTC1_L_00373024-04
1 57572U 24402IN  26037.47805556  .00000000  00000+0  00000-0 0  9995
2 57572  60.0000 276.0000 0000000   0.0000 186.0000 13.16009617    19
CTC1_L_00373025-01
1 57573U 26944CO  26037.47805556  .00000000  00000+0  00000-0 0  9999
2 57573  60.0000 288.0000 0000000   0.0000 288.0000 13.16009617    16
CTC1_L_00373025-02
1 57574U 24087VM  26037.47805556  .00000000  00000+0  00000-0 0  9996
2 57574  60.0000 288.0000 0000000   0.0000  18.0000 13.16009617    18
CTC1_L_00373025-03
1 57575U 22306YD  26037.47805556  .00000000  00000+0  00000-0 0  9999
2 57575  60.0000 288.0000 0000000   0.0000 108.0000 13.16009617    19
CTC1_L_00373025-04
1 57576U 24424GX  26037.47805556  .00000000  00000+0  00000-0 0  9993
2 57576  60.0000 288.0000 0000000   0.0000 198.0000 13.16009617    19
CTC1_L_00373026-01
1 57577U 26384SS  26037.47805556  .00000000  00000+0  00000-0 0  9991
2 57577  60.0000 300.0000 0000000   0.0000 300.0000 13.16009617    10
CTC1_L_00373026-02
1 57578U 23282CL  26037.47805556  .00000000  00000+0  00000-0 0  9996
2 57578  60.0000 300.0000 0000000   0.0000  30.0000 13.16009617    11
CTC1_L_00373026-03
1 57579U 26930TY  26037.47805556  .00000000  00000+0  00000-0 0  9990
2 57579  60.0000 300.0000 0000000   0.0000 120.0000 13.16009617    12
CTC1_L_00373026-04
1 57580U 26444YQ  26037.47805556  .00000000  00000+0  00000-0 0  9992
2 57580  60.0000 300.0000 0000000   0.0000 210.0000 13.16009617    14
CTC1_L_00373027-01
1 57581U 22022TJ  26037.47805556  .00000000  00000+0  00000-0 0  9991
2 57581  60.0000 312.0000 0000000   0.0000 312.0000 13.16009617    11
CTC1_L_00373027-02
1 57582U 25940QE  26037.47805556  .00000000  00000+0  00000-0 0  9994
2 57582  60.0000 312.0000 0000000   0.0000  42.0000 13.16009617    12
CTC1_L_00373027-03
1 57583U 22184LU  26037.47805556  .00000000  00000+0  00000-0 0  9992
2 57583  60.0000 312.0000 0000000   0.0000 132.0000 13.16009617    13
CTC1_L_00373027-04
1 57584U 24744PQ  26037.47805556  .00000000  00000+0  00000-0 0  9997
2 57584  60.0000 312.0000 0000000   0.0000 222.0000 13.16009617    14
CTC1_L_00373028-01
1 57585U 26213DD  26037.47805556  .00000000  00000+0  00000-0 0  9991
2 57585  60.0000 324.0000 0000000   0.0000 324.0000 13.16009617    11
CTC1_L_00373028-02
1 57586U 24983NH  26037.47805556  .00000000  00000+0  00000-0 0  9994
2 57586  60.0000 324.0000 0000000   0.0000  54.0000 13.16009617    12
CTC1_L_00373028-03
1 57587U 22833FT  26037.47805556  .00000000  00000+0  00000-0 0  9997
2 57587  60.0000 324.0000 0000000   0.0000 144.0000 13.16009617    13
CTC1_L_00373028-04
1 57588U 24610CW  26037.47805556  .00000000  00000+0  00000-0 0  9993
2 57588  60.0000 324.0000 0000000   0.0000 234.0000 13.16009617    14
CTC1_L_00373029-01
1 57589U 24692GX  26037.47805556  .00000000  00000+0  00000-0 0  9994
2 57589  60.0000 336.0000 0000000   0.0000 336.0000 13.16009617    11
CTC1_L_00373029-02
1 57590U 25574HP  26037.47805556  .00000000  00000+0  00000-0 0  9996
2 57590  60.0000 336.0000 0000000   0.0000  66.0000 13.16009617    13
CTC1_L_00373029-03
1 57591U 25837QL  26037.47805556  .00000000  00000+0  00000-0 0  9999
2 57591  60.0000 336.0000 0000000   0.0000 156.0000 13.16009617    14
CTC1_L_00373029-04
1 57592U 24234ZI  26037.47805556  .00000000  00000+0  00000-0 0  9990
2 57592  60.0000 336.0000 0000000   0.0000 246.0000 13.16009617    15
CTC1_L_00373030-01
1 57593U 23931S   26037.47805556  .00000000  00000+0  00000-0 0  9994
2 57593  60.0000 348.0000 0000000   0.0000 348.0000 13.16009617    12
CTC1_L_00373030-02
1 57594U 23211VV  26037.47805556  .00000000  00000+0  00000-0 0  9996
2 57594  60.0000 348.0000 0000000   0.0000  78.0000 13.16009617    13
CTC1_L_00373030-03
1 57595U 23321IO  26037.47805556  .00000000  00000+0  00000-0 0  9999
2 57595  60.0000 348.0000 0000000   0.0000 168.0000 13.16009617    14
CTC1_L_00373030-04
1 57596U 26926DJ  26037.47805556  .00000000  00000+0  00000-0 0  9994
2 57596  60.0000 348.0000 0000000   0.0000 258.0000 13.16009617    15
